OBJECT_NAME,OBJECT_ID,EPOCH,MEAN_MOTION,ECCENTRICITY,INCLINATION,RA_OF_ASC_NODE,ARG_OF_PERICENTER,MEAN_ANOMALY,EPHEMERIS_TYPE,CLASSIFICATION_TYPE,NORAD_CAT_ID,ELEMENT_SET_NO,REV_AT_EPOCH,BSTAR,MEAN_MOTION_DOT,MEAN_MOTION_DDOT
OSCAR 7 (AO-7),1974-089B,2026-06-13T15:26:57.921216,12.53698063,.0012533,101.9901,177.8534,136.6950,338.1967,0,U,7530,999,36007,.12416E-3,-.27E-6,0
PHASE 3B (AO-10),1983-058B,2026-06-13T11:38:15.572544,2.05869395,.60121148,25.9094,220.1781,114.6492,317.6358,0,U,14129,999,29541,0,.72E-6,0
UOSAT 2 (UO-11),1984-021B,2026-06-13T20:46:06.717792,14.90776132,.0007318,97.8057,130.4772,183.8219,176.2945,0,U,14781,999,25663,.13219E-3,.1244E-4,0
LUSAT (LO-19),1990-005G,2026-06-13T14:58:12.639360,14.34122217,.0010925,98.8851,186.3311,212.0527,147.9994,0,U,20442,999,90188,.56807E-4,.112E-5,0
EYESAT A (AO-27),1993-061C,2026-06-13T18:48:03.741696,14.30941424,.0009503,98.6880,232.1981,108.4861,251.7356,0,U,22825,999,70651,.52439E-4,.93E-6,0
ITAMSAT (IO-26),1993-061D,2026-06-13T03:13:56.091072,14.31367991,.00100809,98.6828,231.4666,95.5594,264.6739,0,U,22826,999,70673,.4968059E-4,.87E-6,0
RADIO ROSTO (RS15),1994-085A,2026-06-13T20:01:39.468576,11.27583550,.0155841,64.8187,308.6384,4.4971,355.7313,0,U,23439,999,29552,-.57429E-3,-.63E-6,0
JAS-2 (FO-29),1996-046B,2026-06-13T20:04:06.752064,13.53274110,.0350863,98.5242,14.1674,105.1048,258.9185,0,U,24278,999,47271,.52289E-4,.19E-6,0
TECHSAT 1B (GO-32),1998-043D,2026-06-13T19:59:49.464096,14.24427851,.0000881,99.0066,157.5072,170.2303,189.8892,0,U,25397,999,45085,.44485E-4,.56E-6,0
ISS (ZARYA),1998-067A,2026-06-13T20:02:44.240928,15.49214103,.0004955,51.6333,316.6832,182.4672,177.6293,0,U,25544,999,57123,.16534E-3,.8738E-4,0
PCSAT (NO-44),2001-043C,2026-06-13T14:19:57.989280,14.31954950,.0006091,67.0507,253.5571,264.5230,95.5177,0,U,26931,999,28993,.70446E-4,.106E-5,0
SAUDISAT 1C (SO-50),2002-058C,2026-06-13T15:34:17.052672,14.83040079,.0075334,64.5509,139.9331,263.1310,96.1222,0,U,27607,999,26393,.13345E-3,.986E-5,0
CUTE-1 (CO-55),2003-031E,2026-06-13T19:20:18.085632,14.24333852,.0009303,98.6736,173.4071,187.8424,172.2611,0,U,27844,999,19119,.13706E-3,.273E-5,0
CUBESAT XI-IV (CO-57),2003-031J,2026-06-13T13:57:36.858240,14.23619125,.0008793,98.6767,172.9014,208.1063,151.9642,0,U,27848,999,19086,.12199E-3,.234E-5,0
MOZHAETS 4 (RS22),2003-042A,2026-06-13T21:26:06.126144,14.73462775,.0009972,98.3466,349.1595,281.6577,184.5687,0,U,27939,999,21506,.19096E-3,.1186E-4,0
CUBESAT XI-V,2005-043F,2026-06-13T09:27:00.601344,14.72622172,.0013416,98.2979,319.9359,213.2696,146.7669,0,U,28895,999,10119,.21486221E-3,.1317E-4,0
CUTE-1.7+APD II (CO-65),2008-021C,2026-06-13T20:49:48.455616,15.09425459,.0010188,97.8270,146.2174,49.5442,310.6673,0,U,32785,999,98469,.31435E-3,.4966E-4,0
SEEDS II (CO-66),2008-021J,2026-06-13T13:04:32.511072,15.32635476,.0001606,97.7510,162.2685,15.7842,344.3449,0,U,32791,999,98673,.59804E-3,.1879E-3,0
YUBILEINY (RS30),2008-025A,2026-06-13T21:06:15.058080,12.43179026,.0018987,82.5045,357.4989,321.3501,38.6219,0,U,32953,999,81928,-.17509E-3,-.15E-6,0
KKS-1 (KISEKI),2009-002H,2026-06-13T19:34:46.421184,14.83116516,.0006703,98.1192,87.2046,308.9176,51.1439,0,U,33499,999,93569,.16425E-3,.1283E-4,0
SWISSCUBE,2009-051B,2026-06-13T16:18:17.233632,14.62475781,.0005756,98.4039,72.5065,215.4372,144.6447,0,U,35932,999,88864,.1947E-3,.937E-5,0
BEESAT-1,2009-051C,2026-06-13T16:29:14.836128,14.61715545,.0004055,98.3968,72.1570,230.6846,129.3995,0,U,35933,999,88867,.167E-3,.783E-5,0
ITUPSAT1,2009-051E,2026-06-13T16:11:43.005120,14.60435999,.0006157,98.4053,71.3404,247.1048,112.9502,0,U,35935,999,88822,.15577E-3,.706E-5,0
XIWANG-1 (HOPE-1),2009-072B,2026-06-13T19:46:26.700096,13.16440237,.0006838,100.4020,118.7094,239.8393,120.2043,0,U,36122,999,79256,.33206E-3,.82E-6,0
O/OREOS (USA 219),2010-062C,2026-06-13T20:20:37.669344,14.93732001,.0012456,71.9713,87.9037,70.3750,289.8764,0,U,37224,999,11614,.22655E-3,.2341E-4,0
JUGNU,2011-058B,2026-06-13T18:16:22.673856,14.13775870,.00186,19.9621,329.2415,38.5860,351.9026,0,U,37839,999,75854,.71673E-4,.404E-5,0
SRMSAT,2011-058D,2026-06-13T11:49:26.315616,14.11574841,.00118721,19.9718,81.8294,162.9750,353.0513,0,U,37841,999,75729,.51405851E-4,.36E-5,0
STRAND-1,2013-009E,2026-06-13T18:48:38.805408,14.37161544,.0007578,98.3921,345.1020,236.8114,123.2347,0,U,39090,999,69657,.1024E-3,.262E-5,0
ZACUBE-1 (TSHEPISOSAT),2013-066B,2026-06-13T20:59:19.507776,15.01171464,.0040448,97.8083,127.1936,259.2680,100.3989,0,U,39417,999,68023,.27422E-3,.3512E-4,0
GOMX-1,2013-066Q,2026-06-13T20:23:06.306720,14.69449306,.0130214,97.6488,5.5238,88.1590,273.4525,0,U,39430,999,66942,.32291E-3,.2128E-4,0
