ISS (ZARYA)             
1 25544U 98067A   26164.83523427  .00008738  00000+0  16534-3 0  9990
2 25544  51.6333 316.6832 0004955 182.4672 177.6293 15.49214103571238
OSCAR 7 (AO-7)          
1 07530U 74089B   26164.64372594 -.00000027  00000+0  12416-3 0  9998
2 07530 101.9901 177.8534 0012533 136.6950 338.1967 12.53698063360073
PHASE 3B (AO-10)        
1 14129U 83058B   26164.48490246  .00000072  00000+0  00000+0 0  9994
2 14129  25.9094 220.1781 6012114 114.6492 317.6358  2.05869395295412
UOSAT 2 (UO-11)         
1 14781U 84021B   26164.86535553  .00001244  00000+0  13219-3 0  9994
2 14781  97.8057 130.4772 0007318 183.8219 176.2945 14.90776132256630
LUSAT (LO-19)           
1 20442U 90005G   26164.62375740  .00000112  00000+0  56807-4 0  9992
2 20442  98.8851 186.3311 0010925 212.0527 147.9994 14.34122217901888
EYESAT A (AO-27)        
1 22825U 93061C   26164.78337664  .00000093  00000+0  52439-4 0  9999
2 22825  98.6880 232.1981 0009503 108.4861 251.7356 14.30941424706511
ITAMSAT (IO-26)         
1 22826U 93061D   26164.13467698  .00000087  00000+0  49681-4 0  9998
2 22826  98.6828 231.4666 0010080  95.5594 264.6739 14.31367991706731
RADIO ROSTO (RS15)      
1 23439U 94085A   26164.83448459 -.00000063  00000+0 -57429-3 0  9991
2 23439  64.8187 308.6384 0155841   4.4971 355.7313 11.27583550295525
JAS-2 (FO-29)           
1 24278U 96046B   26164.83618926  .00000019  00000+0  52289-4 0  9999
2 24278  98.5242  14.1674 0350863 105.1048 258.9185 13.53274110472718
TECHSAT 1B (GO-32)      
1 25397U 98043D   26164.83321139  .00000056  00000+0  44485-4 0  9998
2 25397  99.0066 157.5072 0000881 170.2303 189.8892 14.24427851450853
PCSAT (NO-44)           
1 26931U 01043C   26164.59719895  .00000106  00000+0  70446-4 0  9992
2 26931  67.0507 253.5571 0006091 264.5230  95.5177 14.31954950289930
SAUDISAT 1C (SO-50)     
1 27607U 02058C   26164.64880848  .00000986  00000+0  13345-3 0  9993
2 27607  64.5509 139.9331 0075334 263.1310  96.1222 14.83040079263931
CUTE-1 (CO-55)          
1 27844U 03031E   26164.80576488  .00000273  00000+0  13706-3 0  9998
2 27844  98.6736 173.4071 0009303 187.8424 172.2611 14.24333852191194
CUBESAT XI-IV (CO-57)   
1 27848U 03031J   26164.58167660  .00000234  00000+0  12199-3 0  9997
2 27848  98.6767 172.9014 0008793 208.1063 151.9642 14.23619125190861
MOZHAETS 4 (RS22)       
1 27939U 03042A   26164.89312646  .00001186  00000+0  19096-3 0  9990
2 27939  98.3466 349.1595 0009972 281.6577 184.5687 14.73462775215066
CUBESAT XI-V            
1 28895U 05043F   26164.39375696  .00001317  00000+0  21486-3 0  9996
2 28895  98.2979 319.9359 0013416 213.2696 146.7669 14.72622172101196
CUTE-1.7+APD II (CO-65) 
1 32785U 08021C   26164.86792194  .00004966  00000+0  31435-3 0  9994
2 32785  97.8270 146.2174 0010188  49.5442 310.6673 15.09425459984697
SEEDS II (CO-66)        
1 32791U 08021J   26164.54482073  .00018790  00000+0  59804-3 0  9998
2 32791  97.7510 162.2685 0001606  15.7842 344.3449 15.32635476986739
YUBILEINY (RS30)        
1 32953U 08025A   26164.87934095 -.00000015  00000+0 -17509-3 0  9993
2 32953  82.5045 357.4989 0018987 321.3501  38.6219 12.43179026819283
KKS-1 (KISEKI)          
1 33499U 09002H   26164.81581506  .00001283  00000+0  16425-3 0  9996
2 33499  98.1192  87.2046 0006703 308.9176  51.1439 14.83116516935698
SWISSCUBE               
1 35932U 09051B   26164.67936613  .00000937  00000+0  19470-3 0  9999
2 35932  98.4039  72.5065 0005756 215.4372 144.6447 14.62475781888648
BEESAT-1                
1 35933U 09051C   26164.68697727  .00000783  00000+0  16700-3 0  9993
2 35933  98.3968  72.1570 0004055 230.6846 129.3995 14.61715545888677
ITUPSAT1                
1 35935U 09051E   26164.67480330  .00000706  00000+0  15577-3 0  9990
2 35935  98.4053  71.3404 0006157 247.1048 112.9502 14.60435999888228
XIWANG-1 (HOPE-1)       
1 36122U 09072B   26164.82392014  .00000082  00000+0  33206-3 0  9996
2 36122 100.4020 118.7094 0006838 239.8393 120.2043 13.16440237792567
O/OREOS (USA 219)       
1 37224U 10062C   26164.84765821  .00002341  00000+0  22655-3 0  9999
2 37224  71.9713  87.9037 0012456  70.3750 289.8764 14.93732001116149
JUGNU                   
1 37839U 11058B   26164.76137354  .00000404  00000+0  71673-4 0  9995
2 37839  19.9621 329.2415 0018600  38.5860 351.9026 14.13775870758549
SRMSAT                  
1 37841U 11058D   26164.49266569  .00000360  00000+0  51406-4 0  9992
2 37841  19.9718  81.8294 0011872 162.9750 353.0513 14.11574841757297
STRAND-1                
1 39090U 13009E   26164.78378247  .00000262  00000+0  10240-3 0  9998
2 39090  98.3921 345.1020 0007578 236.8114 123.2347 14.37161544696573
ZACUBE-1 (TSHEPISOSAT)  
1 39417U 13066B   26164.87453134  .00003512  00000+0  27422-3 0  9994
2 39417  97.8083 127.1936 0040448 259.2680 100.3989 15.01171464680231
GOMX-1                  
1 39430U 13066Q   26164.84937855  .00002128  00000+0  32291-3 0  9995
2 39430  97.6488   5.5238 0130214  88.1590 273.4525 14.69449306669429
